{"fetched_at":"2026-03-29T16:36:15Z","count":15609,"tles":[{"name":"SAUDISAT 3","line1":"1 31118U 07012B   26087.81081802  .00000377  00000+0  69110-4 0  9992","line2":"2 31118  98.1378  38.1981 0015794 120.4829 239.7940 14.71370150 15924","category":"Other"}]}